[{"OBJECT_NAME":"TRACERS 2","OBJECT_ID":"2025-154E","EPOCH":"2026-03-09T22:30:20.763648","MEAN_MOTION":14.93139805,"ECCENTRICITY":0.00022565,"INCLINATION":97.68,"RA_OF_ASC_NODE":134.9823,"ARG_OF_PERICENTER":263.0994,"MEAN_ANOMALY":96.9969,"EPHEMERIS_TYPE":0,"CLASSIFICATION_TYPE":"U","NORAD_CAT_ID":64873,"ELEMENT_SET_NO":999,"REV_AT_EPOCH":3418,"BSTAR":0.0002463614,"MEAN_MOTION_DOT":2.514e-5,"MEAN_MOTION_DDOT":0},{"OBJECT_NAME":"OV1-5 DEB","OBJECT_ID":"1966-025G","EPOCH":"2026-03-09T05:46:25.644576","MEAN_MOTION":14.96071423,"ECCENTRICITY":0.0021156,"INCLINATION":144.6099,"RA_OF_ASC_NODE":304.3983,"ARG_OF_PERICENTER":142.8833,"MEAN_ANOMALY":217.3344,"EPHEMERIS_TYPE":0,"CLASSIFICATION_TYPE":"U","NORAD_CAT_ID":5599,"ELEMENT_SET_NO":999,"REV_AT_EPOCH":8962,"BSTAR":0.0043119514,"MEAN_MOTION_DOT":0.00050705,"MEAN_MOTION_DDOT":0}]
